NORAD_CAT_ID,OBJECT_NAME,OBJECT_TYPE,EPOCH,MEAN_MOTION,ECCENTRICITY,INCLINATION,RA_OF_ASC_NODE,ARG_OF_PERICENTER,MEAN_ANOMALY,BSTAR,MEAN_MOTION_DOT,MEAN_MOTION_DDOT,TLE_LINE0,TLE_LINE1,TLE_LINE2,SEMIMAJOR_AXIS,PERIOD,APOGEE,PERIGEE,DECAYED
52502.0,STARLINK-3912,PAYLOAD,2024-04-20 13:12:23,15.08832829,0.000141,53.217,248.3258,92.1867,267.9287,-8.1914e-05,-1.591e-05,0.0,0 STARLINK-3912,1 52502U 22049BD  24111.55027163 -.00001591  00000-0 -81914-4 0  9994,2 52502  53.2170 248.3258 0001410  92.1867 267.9287 15.08832829108809,6917.902,95.438,540.743,538.792,0.0
52502.0,STARLINK-3912,PAYLOAD,2024-04-20 14:47:46,15.08834901,0.0001595,53.2169,248.0276,94.2621,265.8554,-3.7785e-05,-8.89e-06,0.0,0 STARLINK-3912,1 52502U 22049BD  24111.61651128 -.00000889  00000-0 -37785-4 0  9991,2 52502  53.2169 248.0276 0001595  94.2621 265.8554 15.08834901108659,6917.896,95.438,540.864,538.658,0.0
52502.0,STARLINK-3912,PAYLOAD,2024-04-20 16:23:09,15.08840491,0.0001582,53.2174,247.7298,95.0337,265.0836,4.7239e-05,4.64e-06,0.0,0 STARLINK-3912,1 52502U 22049BD  24111.68274831  .00000464  00000-0  47239-4 0  9992,2 52502  53.2174 247.7298 0001582  95.0337 265.0836 15.08840491108829,6917.879,95.438,540.838,538.649,0.0
52502.0,STARLINK-3912,PAYLOAD,2024-04-21 14:38:34,15.08840754,0.000186,53.2177,243.5717,65.1901,294.9284,0.00032722,4.924e-05,0.0,0 STARLINK-3912,1 52502U 22049BD  24112.61011602  .00004924  00000-0  32722-3 0  9996,2 52502  53.2177 243.5717 0001860  65.1901 294.9284 15.08840754108804,6917.878,95.438,541.03,538.456,0.0
52502.0,STARLINK-3912,PAYLOAD,2024-04-21 17:49:19,15.08859003,0.0001441,53.217,242.9693,103.0562,257.0592,0.00074022,0.00011518,0.0,0 STARLINK-3912,1 52502U 22049BD  24112.74258714  .00011518  00000-0  74022-3 0  9993,2 52502  53.2170 242.9693 0001441 103.0562 257.0592 15.08859003108981,6917.822,95.436,540.684,538.69,0.0
52502.0,STARLINK-3912,PAYLOAD,2024-04-22 17:40:07,15.08853396,0.0001137,53.2165,238.5088,83.8264,276.2858,0.00055198,8.511e-05,0.0,0 STARLINK-3912,1 52502U 22049BD  24113.73619460  .00008511  00000-0  55198-3 0  9994,2 52502  53.2165 238.5088 0001137  83.8264 276.2858 15.08853396109135,6917.839,95.437,540.491,538.918,0.0
52502.0,STARLINK-3912,PAYLOAD,2024-04-23 12:44:44,15.08846212,0.0002007,53.217,234.943,109.2247,250.8963,0.00024851,3.67e-05,0.0,0 STARLINK-3912,1 52502U 22049BD  24114.53107557  .00003670  00000-0  24851-3 0  9995,2 52502  53.2170 234.9430 0002007 109.2247 250.8963 15.08846212109250,6917.861,95.437,541.115,538.338,0.0
52502.0,STARLINK-3912,PAYLOAD,2024-04-23 14:20:08,15.08845853,0.0002206,53.2171,234.6523,58.6318,301.489,0.00038261,5.807e-05,0.0,0 STARLINK-3912,1 52502U 22049BD  24114.59732010  .00005807  00000-0  38261-3 0  9993,2 52502  53.2171 234.6523 0002206  58.6318 301.4890 15.08845853109104,6917.862,95.437,541.254,538.201,0.0
52502.0,STARLINK-3912,PAYLOAD,2024-04-24 14:10:54,15.08854464,0.0001452,53.2167,230.181,82.8363,277.2794,0.00031091,4.666e-05,0.0,0 STARLINK-3912,1 52502U 22049BD  24115.59091064  .00004666  00000-0  31091-3 0  9997,2 52502  53.2167 230.1810 0001452  82.8363 277.2794 15.08854464109257,6917.836,95.437,540.706,538.697,0.0
52502.0,STARLINK-3912,PAYLOAD,2024-04-25 12:26:19,15.08840491,0.000177,53.2188,226.0326,68.1332,291.9848,3.6379e-06,-2.3e-06,0.0,0 STARLINK-3912,1 52502U 22049BD  24116.51827939 -.00000230  00000-0  36379-5 0  9998,2 52502  53.2188 226.0326 0001770  68.1332 291.9848 15.08840491109553,6917.879,95.438,540.968,538.519,0.0
52502.0,STARLINK-3912,PAYLOAD,2024-04-25 14:01:42,15.0884212,0.0001481,53.2177,225.7247,80.8018,279.3141,-7.0109e-06,-4e-06,0.0,0 STARLINK-3912,1 52502U 22049BD  24116.58451500 -.00000400  00000-0 -70109-5 0  9991,2 52502  53.2177 225.7247 0001481  80.8018 279.3141 15.08842120109401,6917.874,95.437,540.763,538.714,0.0
52502.0,STARLINK-3912,PAYLOAD,2024-04-26 13:52:29,15.08853339,0.0001312,53.2167,221.268,85.27,274.8442,0.00038618,5.866e-05,0.0,0 STARLINK-3912,1 52502U 22049BD  24117.57811544  .00005866  00000-0  38618-3 0  9995,2 52502  53.2167 221.2680 0001312  85.2700 274.8442 15.08853339109714,6917.84,95.437,540.612,538.797,0.0
52502.0,STARLINK-3912,PAYLOAD,2024-04-27 13:43:15,15.08872092,0.0001432,53.217,216.8103,88.7012,271.4144,0.00067782,0.00010525,0.0,0 STARLINK-3912,1 52502U 22049BD  24118.57170344  .00010525  00000-0  67782-3 0  9994,2 52502  53.2170 216.8103 0001432  88.7012 271.4144 15.08872092109703,6917.782,95.436,540.638,538.657,0.0
52502.0,STARLINK-3912,PAYLOAD,2024-04-27 23:15:34,15.08845244,0.0001763,53.2159,215.0217,89.5685,270.5509,-0.00023688,-4.057e-05,0.0,0 STARLINK-3912,1 52502U 22049BD  24118.96914831 -.00004057  00000-0 -23688-3 0  9996,2 52502  53.2159 215.0217 0001763  89.5685 270.5509 15.08845244109927,6917.864,95.437,540.949,538.51,0.0
52502.0,STARLINK-3912,PAYLOAD,2024-04-28 13:34:03,15.088177,0.0001629,53.2166,212.3478,104.5599,255.5574,-0.00056482,-9.26e-05,0.0,0 STARLINK-3912,1 52502U 22049BD  24119.56532243 -.00009260  00000-0 -56482-3 0  9995,2 52502  53.2166 212.3478 0001629 104.5599 255.5574 15.08817700110010,6917.949,95.439,540.94,538.687,0.0
52502.0,STARLINK-3912,PAYLOAD,2024-04-28 15:09:27,15.08818738,0.000176,53.2163,212.0506,104.8016,255.3172,-0.00050476,-8.308e-05,0.0,0 STARLINK-3912,1 52502U 22049BD  24119.63156322 -.00008308  00000-0 -50476-3 0  9992,2 52502  53.2163 212.0506 0001760 104.8016 255.3172 15.08818738109864,6917.945,95.439,541.028,538.593,0.0
52502.0,STARLINK-3912,PAYLOAD,2024-04-28 23:06:22,15.08828197,0.0001566,53.2166,210.5632,100.2745,259.8424,-0.00016489,-2.91e-05,0.0,0 STARLINK-3912,1 52502U 22049BD  24119.96276277 -.00002910  00000-0 -16489-3 0  9999,2 52502  53.2166 210.5632 0001566 100.2745 259.8424 15.08828197110077,6917.916,95.438,540.865,538.698,0.0
52502.0,STARLINK-3912,PAYLOAD,2024-04-29 13:24:51,15.0885037,0.0001331,53.2154,207.8869,113.391,246.7222,0.0012388,0.00019488,0.0,0 STARLINK-3912,1 52502U 22049BD  24120.55892615  .00019488  00000-0  12388-2 0  9995,2 52502  53.2154 207.8869 0001331 113.3910 246.7222 15.08850370110163,6917.849,95.437,540.634,538.793,0.0
52502.0,STARLINK-3912,PAYLOAD,2024-04-30 05:18:42,15.08855261,0.0001435,53.2155,204.9155,87.1532,272.9624,0.00046562,7.133e-05,0.0,0 STARLINK-3912,1 52502U 22049BD  24121.22132360  .00007133  00000-0  46562-3 0  9990,2 52502  53.2155 204.9155 0001435  87.1532 272.9624 15.08855261110265,6917.834,95.437,540.691,538.706,0.0
52502.0,STARLINK-3912,PAYLOAD,2024-04-30 13:15:37,15.08852167,0.0001186,53.2141,203.4261,97.0077,263.105,0.00039321,5.978e-05,0.0,0 STARLINK-3912,1 52502U 22049BD  24121.55252194  .00005978  00000-0  39321-3 0  9994,2 52502  53.2141 203.4261 0001186  97.0077 263.1050 15.08852167110154,6917.843,95.437,540.529,538.888,0.0
52502.0,STARLINK-3912,PAYLOAD,2024-04-30 22:47:56,15.08851573,0.0001173,53.2143,201.642,93.6891,266.4236,0.0002439,3.597e-05,0.0,0 STARLINK-3912,1 52502U 22049BD  24121.94995969  .00003597  00000-0  24390-3 0  9996,2 52502  53.2143 201.6420 0001173  93.6891 266.4236 15.08851573110371,6917.845,95.437,540.521,538.899,0.0
52502.0,STARLINK-3912,PAYLOAD,2024-05-01 11:31:01,15.08851194,0.0001186,53.2145,199.263,92.851,267.2618,0.00017208,2.453e-05,0.0,0 STARLINK-3912,1 52502U 22049BD  24122.47987685  .00002453  00000-0  17208-3 0  9991,2 52502  53.2145 199.2630 0001186  92.8510 267.2618 15.08851194110294,6917.846,95.437,540.532,538.891,0.0
52502.0,STARLINK-3912,PAYLOAD,2024-05-01 22:38:43,15.08845759,0.000112,53.215,197.1806,94.8097,265.3023,3.6087e-05,2.87e-06,0.0,0 STARLINK-3912,1 52502U 22049BD  24122.94355704  .00000287  00000-0  36087-4 0  9994,2 52502  53.2150 197.1806 0001120  94.8097 265.3023 15.08845759110527,6917.863,95.437,540.503,538.953,0.0
52502.0,STARLINK-3912,PAYLOAD,2024-05-02 11:21:49,15.08834361,0.000104,53.2167,194.8023,96.5228,263.5883,2.3942e-05,9.3e-07,0.0,0 STARLINK-3912,1 52502U 22049BD  24123.47348667  .00000093  00000-0  23942-4 0  9994,2 52502  53.2167 194.8023 0001040  96.5228 263.5883 15.08834361110606,6917.898,95.438,540.482,539.043,0.0
52502.0,STARLINK-3912,PAYLOAD,2024-05-03 11:12:35,15.08850056,0.0001316,53.2169,190.3413,95.1492,264.965,5.6625e-05,6.14e-06,0.0,0 STARLINK-3912,1 52502U 22049BD  24124.46707331  .00000614  00000-0  56625-4 0  9994,2 52502  53.2169 190.3413 0001316  95.1492 264.9650 15.08850056110758,6917.85,95.437,540.625,538.804,0.0
52502.0,STARLINK-3912,PAYLOAD,2024-05-03 14:23:21,15.08852699,0.0001606,53.2167,189.7459,99.7841,260.3332,4.9246e-05,4.96e-06,0.0,0 STARLINK-3912,1 52502U 22049BD  24124.59955150  .00000496  00000-0  49246-4 0  9991,2 52502  53.2167 189.7459 0001606  99.7841 260.3332 15.08852699110615,6917.842,95.437,540.818,538.596,0.0
52502.0,STARLINK-3912,PAYLOAD,2024-05-04 04:41:51,15.08828261,0.0001638,53.2168,187.0685,94.3009,265.817,7.291e-05,8.72e-06,0.0,0 STARLINK-3912,1 52502U 22049BD  24125.19572988  .00000872  00000-0  72910-4 0  9994,2 52502  53.2168 187.0685 0001638  94.3009 265.8170 15.08828261110865,6917.916,95.438,540.914,538.648,0.0
52502.0,STARLINK-3912,PAYLOAD,2024-05-05 09:18:48,15.08830746,0.0001223,53.2165,181.7189,89.5163,270.5969,-6.8736e-05,-1.381e-05,0.0,0 STARLINK-3912,1 52502U 22049BD  24126.38806325 -.00001381  00000-0 -68736-4 0  9990,2 52502  53.2165 181.7189 0001223  89.5163 270.5969 15.08830746111040,6917.909,95.438,540.62,538.928,0.0
52502.0,STARLINK-3912,PAYLOAD,2024-05-05 14:04:57,15.08834265,0.0001209,53.2161,180.826,88.7411,271.372,-2.0656e-05,-6.17e-06,0.0,0 STARLINK-3912,1 52502U 22049BD  24126.58678099 -.00000617  00000-0 -20656-4 0  9997,2 52502  53.2161 180.8260 0001209  88.7411 271.3720 15.08834265110916,6917.898,95.438,540.599,538.927,0.0
52502.0,STARLINK-3912,PAYLOAD,2024-05-05 20:26:29,15.08844801,0.0001303,53.2173,179.6383,93.1938,266.9203,2.8001e-05,1.58e-06,0.0,0 STARLINK-3912,1 52502U 22049BD  24126.85173316  .00000158  00000-0  28001-4 0  9999,2 52502  53.2173 179.6383 0001303  93.1938 266.9203 15.08844801111116,6917.866,95.437,540.632,538.829,0.0
